{
  "norad_id": 62699,
  "name": "LEMUR-2-ARIANNA",
  "history": [
    {
      "epoch": "2026-03-28T19:20:45.905568",
      "apogee_km": 566.3525786575865,
      "perigee_km": 559.9738014349423,
      "latitude_deg": 66.06939008686554,
      "longitude_deg": 167.28433951968327,
      "semi_major_axis_km": 6941.300190046264,
      "eccentricity": 0.00045948,
      "inclination_deg": 97.6943,
      "raan_deg": 169.9352,
      "arg_perigee_deg": 113.0607,
      "mean_anomaly_deg": 247.1102,
      "mean_motion_rev_day": 15.01210253
    },
    {
      "epoch": "2026-03-29T04:56:39.442848",
      "apogee_km": 566.2791531577268,
      "perigee_km": 559.9723218344388,
      "latitude_deg": 71.79747266494972,
      "longitude_deg": -154.32284128013998,
      "semi_major_axis_km": 6941.262737496083,
      "eccentricity": 0.0004543,
      "inclination_deg": 97.6942,
      "raan_deg": 170.3314,
      "arg_perigee_deg": 112.2976,
      "mean_anomaly_deg": 247.873,
      "mean_motion_rev_day": 15.01222403
    }
  ]
}